[{"OBJECT_NAME":"STARLINK-11137 [DTC]","OBJECT_ID":"2024-112N","EPOCH":"2026-03-09T22:27:24.753024","MEAN_MOTION":15.6970584,"ECCENTRICITY":0.00010851,"INCLINATION":53.1586,"RA_OF_ASC_NODE":264.7609,"ARG_OF_PERICENTER":78.3297,"MEAN_ANOMALY":281.7842,"EPHEMERIS_TYPE":0,"CLASSIFICATION_TYPE":"U","NORAD_CAT_ID":60050,"ELEMENT_SET_NO":999,"REV_AT_EPOCH":10102,"BSTAR":2.6011955e-5,"MEAN_MOTION_DOT":2.563e-5,"MEAN_MOTION_DDOT":0},{"OBJECT_NAME":"ISS OBJECT XU","OBJECT_ID":"1998-067XU","EPOCH":"2026-03-09T04:46:29.551296","MEAN_MOTION":15.69191892,"ECCENTRICITY":0.00048935,"INCLINATION":51.6248,"RA_OF_ASC_NODE":68.1144,"ARG_OF_PERICENTER":76.6698,"MEAN_ANOMALY":283.4844,"EPHEMERIS_TYPE":0,"CLASSIFICATION_TYPE":"U","NORAD_CAT_ID":66908,"ELEMENT_SET_NO":999,"REV_AT_EPOCH":1510,"BSTAR":0.0013351438,"MEAN_MOTION_DOT":0.00161175,"MEAN_MOTION_DDOT":0}]
